start=new Date('2023-01-16T00:00:00.000Z').valueOf();
sats=[{"INCLINATION":"53.0526","PERIAPSIS":"546.255","TIME_SYSTEM":"UTC","GP_ID":"223147574","FILE":"3748322","EPOCH":"2023-01-15T16:39:21.520512","APOAPSIS":"548.075","OBJECT_ID":"2021-009E","RCS_SIZE":"LARGE","MEAN_ANOMALY":"285.8596","NORAD_CAT_ID":"47552","REV_AT_EPOCH":"10775","SITE":"AFETR","TLE_LINE1":"1 47552U 21009E   23015.69399908  .00002760  00000-0  20402-3 0  9995","RA_OF_ASC_NODE":"129.6629","MEAN_ELEMENT_THEORY":"SGP4","CENTER_NAME":"EARTH","BSTAR":"0.00020402000000","EPHEMERIS_TYPE":"0","CLASSIFICATION_TYPE":"U","TLE_LINE2":"2 47552  53.0526 129.6629 0001314  74.2538 285.8596 15.06415792107752","ARG_OF_PERICENTER":"74.2538","MEAN_MOTION_DOT":"0.00002760","DECAY_DATE":null,"OBJECT_NAME":"STARLINK-1940","LAUNCH_DATE":"2021-02-04","MEAN_MOTION_DDOT":"0.0000000000000","OBJECT_TYPE":"PAYLOAD","ECCENTRICITY":"0.00013140","ELEMENT_SET_NO":"999","MEAN_MOTION":"15.06415792","COUNTRY_CODE":"US","SEMIMAJOR_AXIS":"6925.300","PERIOD":"95.591","REF_FRAME":"TEME"},{"ECCENTRICITY":"0.00013510","OBJECT_TYPE":"PAYLOAD","MEAN_MOTION_DDOT":"0.0000000000000","ELEMENT_SET_NO":"999","MEAN_MOTION":"15.06410823","COUNTRY_CODE":"US","SEMIMAJOR_AXIS":"6925.315","PERIOD":"95.591","REF_FRAME":"TEME","EPHEMERIS_TYPE":"0","CLASSIFICATION_TYPE":"U","TLE_LINE2":"2 47556  53.0528 159.2861 0001351  81.9814 278.1328 15.06410823107341","MEAN_MOTION_DOT":"0.00003928","ARG_OF_PERICENTER":"81.9814","DECAY_DATE":null,"LAUNCH_DATE":"2021-02-04","OBJECT_NAME":"STARLINK-1955","RCS_SIZE":"LARGE","NORAD_CAT_ID":"47556","MEAN_ANOMALY":"278.1328","REV_AT_EPOCH":"10734","TLE_LINE1":"1 47556U 21009J   23015.77601184  .00003928  00000-0  28236-3 0  9990","RA_OF_ASC_NODE":"159.2861","SITE":"AFETR","CENTER_NAME":"EARTH","MEAN_ELEMENT_THEORY":"SGP4","BSTAR":"0.00028236000000","PERIAPSIS":"546.245","INCLINATION":"53.0528","TIME_SYSTEM":"UTC","GP_ID":"223146823","FILE":"3748322","APOAPSIS":"548.116","EPOCH":"2023-01-15T18:37:27.422976","OBJECT_ID":"2021-009J"},{"FILE":"3748322","EPOCH":"2023-01-15T16:08:50.961984","APOAPSIS":"548.068","OBJECT_ID":"2021-009K","INCLINATION":"53.0547","PERIAPSIS":"546.299","GP_ID":"223148074","TIME_SYSTEM":"UTC","MEAN_ELEMENT_THEORY":"SGP4","CENTER_NAME":"EARTH","TLE_LINE1":"1 47557U 21009K   23015.67281206  .00000470  00000-0  50424-4 0  9993","SITE":"AFETR","RA_OF_ASC_NODE":"159.7467","BSTAR":"0.00005042400000","RCS_SIZE":"LARGE","REV_AT_EPOCH":"10733","MEAN_ANOMALY":"253.3291","NORAD_CAT_ID":"47557","DECAY_DATE":null,"ARG_OF_PERICENTER":"106.7838","MEAN_MOTION_DOT":"0.00000470","OBJECT_NAME":"STARLINK-1956","LAUNCH_DATE":"2021-02-04","CLASSIFICATION_TYPE":"U","EPHEMERIS_TYPE":"0","TLE_LINE2":"2 47557  53.0547 159.7467 0001277 106.7838 253.3291 15.06409854107334","COUNTRY_CODE":"US","PERIOD":"95.592","SEMIMAJOR_AXIS":"6925.318","REF_FRAME":"TEME","MEAN_MOTION_DDOT":"0.0000000000000","OBJECT_TYPE":"PAYLOAD","ECCENTRICITY":"0.00012770","MEAN_MOTION":"15.06409854","ELEMENT_SET_NO":"999"},{"REV_AT_EPOCH":"10775","NORAD_CAT_ID":"47558","MEAN_ANOMALY":"295.6686","RCS_SIZE":"LARGE","BSTAR":"0.00009793500000","CENTER_NAME":"EARTH","MEAN_ELEMENT_THEORY":"SGP4","TLE_LINE1":"1 47558U 21009L   23015.71980116  .00001178  00000-0  97935-4 0  9999","RA_OF_ASC_NODE":"129.5498","SITE":"AFETR","GP_ID":"223148323","TIME_SYSTEM":"UTC","PERIAPSIS":"546.354","INCLINATION":"53.0523","OBJECT_ID":"2021-009L","APOAPSIS":"548.089","EPOCH":"2023-01-15T17:16:30.820224","FILE":"3748322","MEAN_MOTION":"15.06397454","ELEMENT_SET_NO":"999","ECCENTRICITY":"0.00012530","MEAN_MOTION_DDOT":"0.0000000000000","OBJECT_TYPE":"PAYLOAD","REF_FRAME":"TEME","COUNTRY_CODE":"US","PERIOD":"95.592","SEMIMAJOR_AXIS":"6925.356","TLE_LINE2":"2 47558  53.0523 129.5498 0001253  64.4432 295.6686 15.06397454107757","CLASSIFICATION_TYPE":"U","EPHEMERIS_TYPE":"0","LAUNCH_DATE":"2021-02-04","OBJECT_NAME":"STARLINK-1957","DECAY_DATE":null,"ARG_OF_PERICENTER":"64.4432","MEAN_MOTION_DOT":"0.00001178"},{"MEAN_MOTION":"15.06411781","ELEMENT_SET_NO":"999","OBJECT_TYPE":"PAYLOAD","MEAN_MOTION_DDOT":"0.0000000000000","ECCENTRICITY":"0.00009220","REF_FRAME":"TEME","COUNTRY_CODE":"US","SEMIMAJOR_AXIS":"6925.312","PERIOD":"95.591","TLE_LINE2":"2 47561  53.0528 139.4996 0000922  76.4736 283.6355 15.06411781107627","CLASSIFICATION_TYPE":"U","EPHEMERIS_TYPE":"0","OBJECT_NAME":"STARLINK-1960","LAUNCH_DATE":"2021-02-04","DECAY_DATE":null,"ARG_OF_PERICENTER":"76.4736","MEAN_MOTION_DOT":"0.00005208","REV_AT_EPOCH":"10762","MEAN_ANOMALY":"283.6355","NORAD_CAT_ID":"47561","RCS_SIZE":"LARGE","BSTAR":"0.00036813000000","MEAN_ELEMENT_THEORY":"SGP4","CENTER_NAME":"EARTH","SITE":"AFETR","TLE_LINE1":"1 47561U 21009P   23015.72994136  .00005208  00000-0  36813-3 0  9996","RA_OF_ASC_NODE":"139.4996","GP_ID":"223147575","TIME_SYSTEM":"UTC","INCLINATION":"53.0528","PERIAPSIS":"546.539","APOAPSIS":"547.816","OBJECT_ID":"2021-009P","EPOCH":"2023-01-15T17:31:06.933504","FILE":"3748322"},{"BSTAR":"0.00013801000000","SITE":"AFETR","TLE_LINE1":"1 47562U 21009Q   23015.61198856  .00001775  00000-0  13801-3 0  9997","RA_OF_ASC_NODE":"140.0368","MEAN_ELEMENT_THEORY":"SGP4","CENTER_NAME":"EARTH","MEAN_ANOMALY":"266.5640","NORAD_CAT_ID":"47562","REV_AT_EPOCH":"10820","RCS_SIZE":"LARGE","APOAPSIS":"547.920","EPOCH":"2023-01-15T14:41:15.811584","OBJECT_ID":"2021-009Q","FILE":"3747837","TIME_SYSTEM":"UTC","GP_ID":"223115762","INCLINATION":"53.0541","PERIAPSIS":"546.460","REF_FRAME":"TEME","COUNTRY_CODE":"US","PERIOD":"95.592","SEMIMAJOR_AXIS":"6925.325","ELEMENT_SET_NO":"999","MEAN_MOTION":"15.06407573","OBJECT_TYPE":"PAYLOAD","MEAN_MOTION_DDOT":"0.0000000000000","ECCENTRICITY":"0.00010540","OBJECT_NAME":"STARLINK-1961","LAUNCH_DATE":"2021-02-04","ARG_OF_PERICENTER":"93.5470","MEAN_MOTION_DOT":"0.00001775","DECAY_DATE":null,"TLE_LINE2":"2 47562  53.0541 140.0368 0001054  93.5470 266.5640 15.06407573108202","EPHEMERIS_TYPE":"0","CLASSIFICATION_TYPE":"U"},{"TLE_LINE2":"2 47563  53.0537 139.6401 0001275  88.7054 271.4081 15.06361314107619","CLASSIFICATION_TYPE":"U","EPHEMERIS_TYPE":"0","LAUNCH_DATE":"2021-02-04","OBJECT_NAME":"STARLINK-1962","DECAY_DATE":null,"ARG_OF_PERICENTER":"88.7054","MEAN_MOTION_DOT":"0.00006300","MEAN_MOTION":"15.06361314","ELEMENT_SET_NO":"999","ECCENTRICITY":"0.00012750","OBJECT_TYPE":"PAYLOAD","MEAN_MOTION_DDOT":"0.0000000000000","REF_FRAME":"TEME","PERIOD":"95.595","COUNTRY_CODE":"US","SEMIMAJOR_AXIS":"6925.467","GP_ID":"223146574","TIME_SYSTEM":"UTC","PERIAPSIS":"546.449","INCLINATION":"53.0537","OBJECT_ID":"2021-009R","APOAPSIS":"548.215","EPOCH":"2023-01-15T16:48:41.815872","FILE":"3748322","REV_AT_EPOCH":"10761","NORAD_CAT_ID":"47563","MEAN_ANOMALY":"271.4081","RCS_SIZE":"LARGE","BSTAR":"0.00044193000000","CENTER_NAME":"EARTH","MEAN_ELEMENT_THEORY":"SGP4","RA_OF_ASC_NODE":"139.6401","TLE_LINE1":"1 47563U 21009R   23015.70048398  .00006300  00000-0  44193-3 0  9990","SITE":"AFETR"},{"ELEMENT_SET_NO":"999","MEAN_MOTION":"15.06411031","ECCENTRICITY":"0.00012050","MEAN_MOTION_DDOT":"0.0000000000000","OBJECT_TYPE":"PAYLOAD","REF_FRAME":"TEME","SEMIMAJOR_AXIS":"6925.315","COUNTRY_CODE":"US","PERIOD":"95.591","TLE_LINE2":"2 47564  53.0544 129.6397 0001205  80.8699 279.2426 15.06411031107758","EPHEMERIS_TYPE":"0","CLASSIFICATION_TYPE":"U","LAUNCH_DATE":"2021-02-04","OBJECT_NAME":"STARLINK-1963","MEAN_MOTION_DOT":"-0.00000045","ARG_OF_PERICENTER":"80.8699","DECAY_DATE":null,"NORAD_CAT_ID":"47564","MEAN_ANOMALY":"279.2426","REV_AT_EPOCH":"10775","RCS_SIZE":"LARGE","BSTAR":"0.00001587400000","SITE":"AFETR","TLE_LINE1":"1 47564U 21009S   23015.70136293 -.00000045  00000-0  15874-4 0  9999","RA_OF_ASC_NODE":"129.6397","CENTER_NAME":"EARTH","MEAN_ELEMENT_THEORY":"SGP4","TIME_SYSTEM":"UTC","GP_ID":"223146824","PERIAPSIS":"546.345","INCLINATION":"53.0544","EPOCH":"2023-01-15T16:49:57.757152","APOAPSIS":"548.014","OBJECT_ID":"2021-009S","FILE":"3748322"},{"RCS_SIZE":"LARGE","REV_AT_EPOCH":"10774","MEAN_ANOMALY":"275.1907","NORAD_CAT_ID":"47565","MEAN_ELEMENT_THEORY":"SGP4","CENTER_NAME":"EARTH","SITE":"AFETR","TLE_LINE1":"1 47565U 21009T   23015.63134802  .00034882  00000-0  23482-2 0  9993","RA_OF_ASC_NODE":"129.9451","BSTAR":"0.00234820000000","INCLINATION":"53.0517","PERIAPSIS":"546.307","GP_ID":"223148075","TIME_SYSTEM":"UTC","FILE":"3748322","EPOCH":"2023-01-15T15:09:08.468928","APOAPSIS":"548.035","OBJECT_ID":"2021-009T","OBJECT_TYPE":"PAYLOAD","MEAN_MOTION_DDOT":"0.0000000000000","ECCENTRICITY":"0.00012470","MEAN_MOTION":"15.06413883","ELEMENT_SET_NO":"999","SEMIMAJOR_AXIS":"6925.306","COUNTRY_CODE":"US","PERIOD":"95.591","REF_FRAME":"TEME","CLASSIFICATION_TYPE":"U","EPHEMERIS_TYPE":"0","TLE_LINE2":"2 47565  53.0517 129.9451 0001247  84.9224 275.1907 15.06413883107743","DECAY_DATE":null,"ARG_OF_PERICENTER":"84.9224","MEAN_MOTION_DOT":"0.00034882","OBJECT_NAME":"STARLINK-1964","LAUNCH_DATE":"2021-02-04"},{"LAUNCH_DATE":"2021-02-04","OBJECT_NAME":"STARLINK-1965","ARG_OF_PERICENTER":"86.7427","MEAN_MOTION_DOT":"0.00003973","DECAY_DATE":null,"TLE_LINE2":"2 47566  53.0515 119.9812 0001213  86.7427 273.3701 15.06411090107885","EPHEMERIS_TYPE":"0","CLASSIFICATION_TYPE":"U","REF_FRAME":"TEME","SEMIMAJOR_AXIS":"6925.315","COUNTRY_CODE":"US","PERIOD":"95.591","ELEMENT_SET_NO":"999","MEAN_MOTION":"15.06411090","ECCENTRICITY":"0.00012130","OBJECT_TYPE":"PAYLOAD","MEAN_MOTION_DDOT":"0.0000000000000","OBJECT_ID":"2021-009U","APOAPSIS":"548.020","EPOCH":"2023-01-15T14:59:50.614368","FILE":"3748322","TIME_SYSTEM":"UTC","GP_ID":"223148324","PERIAPSIS":"546.340","INCLINATION":"53.0515","BSTAR":"0.00028538000000","TLE_LINE1":"1 47566U 21009U   23015.62489137  .00003973  00000-0  28538-3 0  9992","SITE":"AFETR","RA_OF_ASC_NODE":"119.9812","CENTER_NAME":"EARTH","MEAN_ELEMENT_THEORY":"SGP4","NORAD_CAT_ID":"47566","MEAN_ANOMALY":"273.3701","REV_AT_EPOCH":"10788","RCS_SIZE":"LARGE"}];
